IRIDIUM 126             
1 42809U 17039G   25130.79359924  .00000074  00000+0  19392-4 0  9990
2 42809  86.3991 161.8405 0002140  96.3399 263.8040 14.34217925412280
IRIDIUM 124             
1 42810U 17039H   25130.44820881  .00000458  00000+0  13012-3 0  9997
2 42810  86.4458  98.7494 0002594  91.1900 268.9598 14.43283595417028
IRIDIUM 128             
1 42811U 17039J   25130.64480173  .00000134  00000+0  40647-4 0  9992
2 42811  86.4021 193.3628 0002726  98.9332 261.2173 14.34218148412287
IRIDIUM 121             
1 42812U 17039K   25130.46378224  .00000110  00000+0  32082-4 0  9994
2 42812  86.3992 162.0030 0002475  90.9087 269.2393 14.34216695412102
IRIDIUM 133             
1 42955U 17061A   25130.46720794  .00000152  00000+0  47039-4 0  9994
2 42955  86.4025 193.5446 0002373  97.4678 262.6787 14.34218433397055
IRIDIUM 100             
1 42956U 17061B   25130.25155856  .00000215  00000+0  69749-4 0  9995
2 42956  86.4023 193.5629 0002381 100.4386 259.7078 14.34218905397028
IRIDIUM 122             
1 42957U 17061C   25130.56868954  .00000178  00000+0  56430-4 0  9991
2 42957  86.4021 193.4294 0002307  98.0358 262.1100 14.34218446397072
IRIDIUM 129             
1 42958U 17061D   25130.45452204  .00000108  00000+0  31393-4 0  9991
2 42958  86.4022 193.5396 0002030  86.6874 273.4554 14.34218264397073
